OBJECT_NAME,OBJECT_ID,EPOCH,MEAN_MOTION,ECCENTRICITY,INCLINATION,RA_OF_ASC_NODE,ARG_OF_PERICENTER,MEAN_ANOMALY,EPHEMERIS_TYPE,CLASSIFICATION_TYPE,NORAD_CAT_ID,ELEMENT_SET_NO,REV_AT_EPOCH,BSTAR,MEAN_MOTION_DOT,MEAN_MOTION_DDOT
FM-5,2009-034A,2026-07-12T21:39:24.983136,1.00271288,.0000669,0.0416,268.2075,72.2071,189.0649,0,U,35493,999,4690,0,-.201E-5,0
TERRESTAR-1,2009-035A,2026-07-13T02:17:59.963424,1.00270891,.0002523,5.1981,48.7741,55.0331,110.6740,0,U,35496,999,6239,0,-.62E-6,0
COSMOS 2451,2009-036A,2026-07-13T03:14:23.199072,12.40870514,.0006871,82.4876,76.2608,145.6882,214.4641,0,U,35498,999,77086,-.19661E-3,-.17E-6,0
COSMOS 2453,2009-036C,2026-07-13T04:14:38.012640,12.41519545,.0007735,82.4877,71.7571,104.9881,255.2054,0,U,35500,999,77120,-.25002E-3,-.24E-6,0
DEIMOS-1,2009-041A,2026-07-13T03:55:59.384928,14.75262332,.0002758,97.7426,350.2695,95.2510,264.9014,0,U,35681,999,91071,.20848E-4,.93E-6,0
DUBAISAT-1,2009-041B,2026-07-12T22:23:00.960000,14.75164754,.0010085,98.0080,326.9130,356.0422,4.0705,0,U,35682,999,90889,.70006E-4,.422E-5,0
UK-DMC 2,2009-041C,2026-07-13T04:31:58.578816,14.76090902,.0001534,97.8860,328.5245,99.4390,260.6993,0,U,35683,999,91040,.10532E-4,.23E-6,0
APRIZESAT 4,2009-041D,2026-07-12T17:54:13.260384,14.83911924,.0042095,98.1404,269.5751,237.6607,122.0528,0,U,35684,999,91515,.48023E-4,.345E-5,0
NANOSAT 1B,2009-041E,2026-07-13T03:46:55.674048,14.93162501,.0050602,98.1192,313.6688,79.4270,281.2643,0,U,35685,999,91829,.10514E-3,.1061E-4,0
APRIZESAT 3,2009-041F,2026-07-12T21:53:17.873088,14.96306654,.0060928,98.2094,348.3734,343.4705,16.4527,0,U,35686,999,92022,.97248E-4,.1071E-4,0
ASIASAT 5,2009-042A,2026-07-13T01:39:38.656224,1.00273684,.0001643,0.0065,306.4553,137.5788,332.3294,0,U,35696,999,6196,0,-.309E-5,0
NAVSTAR 64 (USA 206),2009-043A,2026-07-12T07:15:38.787264,2.00552847,.00537456,56.2260,26.4662,84.2562,95.9378,0,U,35752,999,12386,0,-.57E-6,0
JCSAT-12 (JCSAT-RA),2009-044A,2026-07-13T00:24:12.949056,1.00270067,.0000672,0.0359,286.8877,290.6600,211.4549,0,U,35755,999,6186,0,-.329E-5,0
OPTUS D3,2009-044B,2026-07-12T22:48:29.541024,1.00268614,.0002924,0.8917,268.2973,204.5770,316.2131,0,U,35756,999,6182,0,-.147E-5,0
NIMIQ 5,2009-050A,2026-07-13T02:51:10.652256,1.00271386,.0002522,0.0504,253.8921,213.4664,153.7334,0,U,35873,999,6160,0,-.259E-5,0
OCEANSAT-2,2009-051A,2026-07-13T05:17:29.466816,13.99656274,.001722,98.2319,178.4728,159.1880,200.9991,0,U,35931,999,88297,-.58093E-4,-.122E-5,0
SWISSCUBE,2009-051B,2026-07-12T05:01:01.202880,14.62527427,.0007715,98.4012,101.5313,127.0520,233.1388,0,U,35932,999,89281,.10865E-3,.502E-5,0
BEESAT-1,2009-051C,2026-07-12T17:03:25.723296,14.61759519,.0005984,98.3939,101.6234,136.3628,223.8047,0,U,35933,999,89291,.88659E-4,.393E-5,0
ITUPSAT1,2009-051E,2026-07-11T23:17:18.975264,14.60475983,.0007861,98.4023,100.0372,152.4089,207.7529,0,U,35935,999,89235,.90105677E-4,.388E-5,0
AMAZONAS 2,2009-054A,2026-07-13T02:44:28.787712,1.00270533,.0003127,1.8801,82.7166,31.3210,146.0842,0,U,35942,999,6144,0,-.263E-5,0
COMSATBW-1,2009-054B,2026-07-13T03:29:54.292128,1.00269266,.0002604,0.0626,182.1086,290.9186,293.5046,0,U,35943,999,6156,0,.23E-6,0
WORLDVIEW-2 (WV-2),2009-055A,2026-07-13T04:32:02.681088,14.37906609,.000523,98.4757,267.2845,134.7292,225.4322,0,U,35946,999,87938,.27027E-4,.38E-6,0
DMSP 5D-3 F18 (USA 210),2009-057A,2026-07-13T03:56:47.669568,14.14910810,.0011107,98.9055,174.8792,171.1585,188.9786,0,U,35951,999,86326,.10636E-3,.161E-5,0
NSS-12,2009-058A,2026-07-12T20:37:30.030240,1.00268485,.000436,0.0418,288.7652,147.9254,220.4052,0,U,36032,999,6117,0,.71E-6,0
THOR 6,2009-058B,2026-07-13T03:11:41.040096,1.00269840,.0001546,0.0128,53.3817,59.4564,225.2613,0,U,36033,999,6126,0,0,0
SMOS,2009-059A,2026-07-12T23:20:23.002080,14.39735328,.0001137,98.4426,20.9295,95.9522,264.1796,0,U,36036,999,87716,.63538E-4,.156E-5,0
PROBA-2,2009-059B,2026-07-12T23:05:56.738400,14.54873144,.0012848,98.2458,16.9589,195.7645,164.3153,0,U,36037,999,88527,.31709E-4,.91E-6,0
POISK,2009-060A,2026-07-13T02:54:40.039200,15.48996109,.0006685,51.6304,171.7447,289.3803,70.6462,0,U,36086,999,59317,.86456E-4,.4316E-4,0
SJ-11-01,2009-061A,2026-07-13T05:41:43.182240,14.63710368,.0009757,98.0060,174.4860,306.7866,110.5301,0,U,36088,999,88830,.66311E-4,.299E-5,0
COSMOS 2455,2009-063A,2026-07-12T23:44:54.966912,13.97052949,.0003564,67.1458,190.1480,281.2126,78.8558,0,U,36095,999,84873,.30522E-4,-.33E-6,0
INTELSAT 14 (IS-14),2009-064A,2026-07-13T02:59:04.748064,1.00270601,.0002221,0.0155,42.2389,77.1990,171.3472,0,U,36097,999,6086,0,-.276E-5,0
